NORAD_CAT_ID,OBJECT_NAME,OBJECT_TYPE,EPOCH,MEAN_MOTION,ECCENTRICITY,INCLINATION,RA_OF_ASC_NODE,ARG_OF_PERICENTER,MEAN_ANOMALY,BSTAR,MEAN_MOTION_DOT,MEAN_MOTION_DDOT,TLE_LINE0,TLE_LINE1,TLE_LINE2,SEMIMAJOR_AXIS,PERIOD,APOGEE,PERIGEE,DECAYED
53262.0,STARLINK-4085,PAYLOAD,2023-02-13 18:08:04,15.0885977,0.000127,53.2164,181.6996,105.0658,255.0475,0.0015227,0.00024042,0.0,0 STARLINK-4085,1 53262U 22086W   23044.75561208  .00024042  00000-0  15227-2 0  9994,2 53262  53.2164 181.6996 0001270 105.0658 255.0475 15.08859770 31817,6917.82,95.436,540.564,538.806,0.0
53262.0,STARLINK-4085,PAYLOAD,2023-02-14 02:05:01,15.08845041,0.0002211,53.2162,180.2129,85.1098,275.0147,0.00096411,0.00015091,0.0,0 STARLINK-4085,1 53262U 22086W   23045.08681808  .00015091  00000-0  96411-3 0  9999,2 53262  53.2162 180.2129 0002211  85.1098 275.0147 15.08845041 31869,6917.865,95.437,541.26,538.2,0.0
53262.0,STARLINK-4085,PAYLOAD,2023-02-14 14:48:05,15.08857625,9.81e-05,53.2157,177.8339,93.6269,266.4836,0.0018899,0.00029932,0.0,0 STARLINK-4085,1 53262U 22086W   23045.61673290  .00029932  00000-0  18899-2 0  9996,2 53262  53.2157 177.8339 0000981  93.6269 266.4836 15.08857625 32124,6917.827,95.436,540.37,539.013,0.0
53262.0,STARLINK-4085,PAYLOAD,2023-02-14 17:58:51,15.08871691,0.0001243,53.2156,177.2392,86.6169,273.4965,0.0027157,0.00043235,0.0,0 STARLINK-4085,1 53262U 22086W   23045.74921134  .00043235  00000-0  27157-2 0  9992,2 53262  53.2156 177.2392 0001243  86.6169 273.4965 15.08871691 32141,6917.784,95.436,540.508,538.789,0.0
53262.0,STARLINK-4085,PAYLOAD,2023-02-15 01:55:47,15.08856868,0.0001246,53.2157,175.7522,101.2364,258.8768,0.0011045,0.00017342,0.0,0 STARLINK-4085,1 53262U 22086W   23046.08041124  .00017342  00000-0  11045-2 0  9991,2 53262  53.2157 175.7522 0001246 101.2364 258.8768 15.08856868 32017,6917.829,95.436,540.556,538.832,0.0
53262.0,STARLINK-4085,PAYLOAD,2023-02-15 14:38:52,15.08867395,0.0001124,53.2153,173.3739,101.5533,258.5585,0.0024916,0.00039619,0.0,0 STARLINK-4085,1 53262U 22086W   23046.61033074  .00039619  00000-0  24916-2 0  9997,2 53262  53.2153 173.3739 0001124 101.5533 258.5585 15.08867395 32272,6917.797,95.436,540.439,538.884,0.0
53262.0,STARLINK-4085,PAYLOAD,2023-02-15 17:49:38,15.08883501,0.0001405,53.215,172.7792,95.5892,264.526,0.0034437,0.00055012,0.0,0 STARLINK-4085,1 53262U 22086W   23046.74280893  .00055012  00000-0  34437-2 0  9998,2 53262  53.2150 172.7792 0001405  95.5892 264.5260 15.08883501 32299,6917.747,95.435,540.584,538.64,0.0
53262.0,STARLINK-4085,PAYLOAD,2023-02-16 14:29:38,15.08883225,0.0001286,53.2172,168.913,78.2152,281.8985,0.0025761,0.00040998,0.0,0 STARLINK-4085,1 53262U 22086W   23047.60392252  .00040998  00000-0  25761-2 0  9994,2 53262  53.2172 168.9130 0001286  78.2152 281.8985 15.08883225 32244,6917.748,95.435,540.503,538.724,0.0
53262.0,STARLINK-4085,PAYLOAD,2023-02-17 14:20:26,15.08817736,7.1e-05,53.2177,164.453,107.7126,252.3944,0.0015015,0.00023675,0.0,0 STARLINK-4085,1 53262U 22086W   23048.59753081  .00023675  00000-0  15015-2 0  9998,2 53262  53.2177 164.4530 0000710 107.7126 252.3944 15.08817736 32392,6917.948,95.439,540.305,539.322,0.0
53262.0,STARLINK-4085,PAYLOAD,2023-02-17 15:55:49,15.08821736,0.0001124,53.2184,164.1572,99.5867,260.5253,0.0016527,0.00026099,0.0,0 STARLINK-4085,1 53262U 22086W   23048.66377216  .00026099  00000-0  16527-2 0  9990,2 53262  53.2184 164.1572 0001124  99.5867 260.5253 15.08821736 32583,6917.936,95.439,540.579,539.024,0.0
53262.0,STARLINK-4085,PAYLOAD,2023-02-18 07:49:42,15.08818785,0.0001654,53.2195,161.1843,96.3858,263.7323,0.00090788,0.00014182,0.0,0 STARLINK-4085,1 53262U 22086W   23049.32618645  .00014182  00000-0  90788-3 0  9990,2 53262  53.2195 161.1843 0001654  96.3858 263.7323 15.08818785 32501,6917.945,95.439,540.954,538.666,0.0
53262.0,STARLINK-4085,PAYLOAD,2023-02-19 12:26:38,15.08856527,0.0001039,53.2175,155.8321,84.3614,275.7497,0.00097842,0.00015325,0.0,0 STARLINK-4085,1 53262U 22086W   23050.51850649  .00015325  00000-0  97842-3 0  9993,2 53262  53.2175 155.8321 0001039  84.3614 275.7497 15.08856527 32684,6917.83,95.437,540.414,538.976,0.0
53262.0,STARLINK-4085,PAYLOAD,2023-02-19 23:34:20,15.08847055,0.0001083,53.2181,153.7506,99.3903,260.7212,-7.0045e-06,-3.99e-06,0.0,0 STARLINK-4085,1 53262U 22086W   23050.98218314 -.00000399  00000-0 -70045-5 0  9996,2 53262  53.2181 153.7506 0001083  99.3903 260.7212 15.08847055 32752,6917.859,95.437,540.473,538.975,0.0
53262.0,STARLINK-4085,PAYLOAD,2023-02-20 13:52:48,15.08854543,0.0001328,53.2183,151.0753,96.6668,263.4476,0.00052105,8.018e-05,0.0,0 STARLINK-4085,1 53262U 22086W   23051.57834163  .00008018  00000-0  52105-3 0  9997,2 53262  53.2183 151.0753 0001328  96.6668 263.4476 15.08854543 33022,6917.836,95.437,540.62,538.782,0.0
53262.0,STARLINK-4085,PAYLOAD,2023-02-21 05:46:40,15.08851041,0.0001597,53.2169,148.0985,84.592,275.5254,0.00076847,0.00011967,0.0,0 STARLINK-4085,1 53262U 22086W   23052.24074408  .00011967  00000-0  76847-3 0  9996,2 53262  53.2169 148.0985 0001597  84.5920 275.5254 15.08851041 32942,6917.847,95.437,540.816,538.607,0.0
53262.0,STARLINK-4085,PAYLOAD,2023-02-21 12:08:12,15.08859185,0.000128,53.2171,146.9103,97.5967,262.5171,0.0014012,0.00022094,0.0,0 STARLINK-4085,1 53262U 22086W   23052.50570084  .00022094  00000-0  14012-2 0  9994,2 53262  53.2171 146.9103 0001280  97.5967 262.5171 15.08859185 33164,6917.822,95.436,540.572,538.801,0.0
53262.0,STARLINK-4085,PAYLOAD,2023-02-21 23:15:54,15.08849468,0.0001826,53.2171,144.8287,85.7039,274.4162,0.0011138,0.00017487,0.0,0 STARLINK-4085,1 53262U 22086W   23052.96938159  .00017487  00000-0  11138-2 0  9991,2 53262  53.2171 144.8287 0001826  85.7039 274.4162 15.08849468 33052,6917.851,95.437,540.98,538.453,0.0
53262.0,STARLINK-4085,PAYLOAD,2023-02-22 10:23:36,15.088437,0.0001878,53.2172,142.7492,82.2272,277.8933,0.00018597,2.673e-05,0.0,0 STARLINK-4085,1 53262U 22086W   23053.43306186  .00002673  00000-0  18597-3 0  9991,2 53262  53.2172 142.7492 0001878  82.2272 277.8933 15.08843700 33120,6917.869,95.437,541.033,538.435,0.0
53262.0,STARLINK-4085,PAYLOAD,2023-02-22 11:58:59,15.08844083,0.0001809,53.2172,142.4509,83.8606,276.2592,0.00018699,2.689e-05,0.0,0 STARLINK-4085,1 53262U 22086W   23053.49930124  .00002689  00000-0  18699-3 0  9992,2 53262  53.2172 142.4509 0001809  83.8606 276.2592 15.08844083 33318,6917.868,95.437,540.984,538.481,0.0
53262.0,STARLINK-4085,PAYLOAD,2023-02-22 15:09:45,15.08845282,0.0001731,53.2178,141.8563,81.1307,278.9881,0.00015861,2.237e-05,0.0,0 STARLINK-4085,1 53262U 22086W   23053.63178060  .00002237  00000-0  15861-3 0  9998,2 53262  53.2178 141.8563 0001731  81.1307 278.9881 15.08845282 33334,6917.864,95.437,540.927,538.532,0.0
53262.0,STARLINK-4085,PAYLOAD,2023-02-23 11:49:46,15.08842278,0.0001511,53.2179,137.9909,85.694,274.4225,5.6889e-05,6.18e-06,0.0,0 STARLINK-4085,1 53262U 22086W   23054.49290062  .00000618  00000-0  56889-4 0  9997,2 53262  53.2179 137.9909 0001511  85.6940 274.4225 15.08842278 33282,6917.873,95.437,540.784,538.693,0.0
53262.0,STARLINK-4085,PAYLOAD,2023-02-24 11:40:33,15.08842005,0.0001561,53.2173,133.5305,86.5434,273.5736,7.2766e-05,8.7e-06,0.0,0 STARLINK-4085,1 53262U 22086W   23055.48650217  .00000870  00000-0  72766-4 0  9991,2 53262  53.2173 133.5305 0001561  86.5434 273.5736 15.08842005 33613,6917.874,95.437,540.819,538.659,0.0
53262.0,STARLINK-4085,PAYLOAD,2023-02-24 14:51:19,15.08847188,0.0001347,53.2161,132.9336,83.0937,277.0209,0.00012439,1.693e-05,0.0,0 STARLINK-4085,1 53262U 22086W   23055.61897875  .00001693  00000-0  12439-3 0  9993,2 53262  53.2161 132.9336 0001347  83.0937 277.0209 15.08847188 33452,6917.858,95.437,540.655,538.792,0.0
53262.0,STARLINK-4085,PAYLOAD,2023-02-25 05:09:49,15.08828347,0.0001387,53.2165,130.2588,88.3097,271.8054,-2.4006e-05,-6.7e-06,0.0,0 STARLINK-4085,1 53262U 22086W   23056.21515109 -.00000670  00000-0 -24006-4 0  9997,2 53262  53.2165 130.2588 0001387  88.3097 271.8054 15.08828347 33541,6917.916,95.438,540.741,538.821,0.0
53262.0,STARLINK-4085,PAYLOAD,2023-02-25 13:06:44,15.08830499,0.0001425,53.2164,128.7722,85.5681,274.5474,-2.0163e-05,-6.09e-06,0.0,0 STARLINK-4085,1 53262U 22086W   23056.54635221 -.00000609  00000-0 -20163-4 0  9993,2 53262  53.2164 128.7722 0001425  85.5681 274.5474 15.08830499 33775,6917.909,95.438,540.76,538.789,0.0
53262.0,STARLINK-4085,PAYLOAD,2023-02-25 16:17:30,15.08837352,0.0001408,53.218,128.1769,95.0393,265.076,6.1684e-05,6.94e-06,0.0,0 STARLINK-4085,1 53262U 22086W   23056.67882925  .00000694  00000-0  61684-4 0  9997,2 53262  53.2180 128.1769 0001408  95.0393 265.0760 15.08837352 33616,6917.888,95.438,540.728,538.779,0.0
53262.0,STARLINK-4085,PAYLOAD,2023-02-26 12:57:30,15.08856986,0.0001665,53.2187,124.3132,95.8351,264.2831,0.00035741,5.407e-05,0.0,0 STARLINK-4085,1 53262U 22086W   23057.53994111  .00005407  00000-0  35741-3 0  9995,2 53262  53.2187 124.3132 0001665  95.8351 264.2831 15.08856986 33920,6917.828,95.436,540.845,538.542,0.0
53262.0,STARLINK-4085,PAYLOAD,2023-02-26 14:32:53,15.08862619,0.0001253,53.217,124.0132,89.9642,270.1494,0.00038114,5.787e-05,0.0,0 STARLINK-4085,1 53262U 22086W   23057.60617592  .00005787  00000-0  38114-3 0  9996,2 53262  53.2170 124.0132 0001253  89.9642 270.1494 15.08862619 33751,6917.811,95.436,540.543,538.809,0.0
53262.0,STARLINK-4085,PAYLOAD,2023-02-26 20:54:26,15.08848626,0.0001472,53.2175,122.822,73.5623,286.5531,0.00019814,2.868e-05,0.0,0 STARLINK-4085,1 53262U 22086W   23057.87114220  .00002868  00000-0  19814-3 0  9998,2 53262  53.2175 122.8220 0001472  73.5623 286.5531 15.08848626 33970,6917.854,95.437,540.737,538.701,0.0
53262.0,STARLINK-4085,PAYLOAD,2023-02-27 03:15:59,15.08840946,0.0002326,53.217,121.6341,77.9567,282.1685,0.0002432,3.585e-05,0.0,0 STARLINK-4085,1 53262U 22086W   23058.13611110  .00003585  00000-0  24320-3 0  9993,2 53262  53.2170 121.6341 0002326  77.9567 282.1685 15.08840946 33834,6917.877,95.437,541.352,538.133,0.0
